IRIDIUM 136             
1 42962U 17061H   24065.38021360  .00000236  00000+0  77320-4 0  9991
2 42962  86.4016  13.6877 0001953  84.7514 275.3905 14.34219608335324
